IRIDIUM 112             
1 41925U 17003J   24190.56446766  .00000246  00000+0  80733-4 0  9998
2 41925  86.3961  24.4301 0001839  92.0933 268.0473 14.34219615391703
IRIDIUM 111             
1 41926U 17003K   24190.55178445  .00000027  00000+0  24271-5 0  9997
2 41926  86.3963  24.4903 0002083  99.0092 261.1340 14.34217995391750
IRIDIUM 113             
1 42803U 17039A   24190.60151821  .00000051  00000+0  11040-4 0  9992
2 42803  86.3962 258.2338 0002282  99.8093 260.3360 14.34217963369622
IRIDIUM 123             
1 42804U 17039B   24190.78253406  .00000105  00000+0  30474-4 0  9996
2 42804  86.3969 289.6666 0002224  97.6116 262.5332 14.34218096368417
IRIDIUM 120             
1 42805U 17039C   24190.59517617  .00000290  00000+0  96592-4 0  9991
2 42805  86.3951 258.1108 0002328  93.3586 266.7876 14.34217747369614
IRIDIUM 115             
1 42806U 17039D   24190.76540180  .00000501  00000+0  14291-3 0  9992
2 42806  86.4489 258.0674 0002327 103.4428 256.7032 14.43273367372084
IRIDIUM 118             
1 42807U 17039E   24190.53516900  .00000309  00000+0  10331-3 0  9998
2 42807  86.3969 289.7713 0002089  93.3755 266.7680 14.34220373368373
IRIDIUM 117             
1 42808U 17039F   24190.83327477  .00000117  00000+0  34666-4 0  9996
2 42808  86.3968 289.6109 0002371 100.2289 259.9174 14.34218475368456
